{"spkid": "50678634", "covariance": {"labels": ["e", "q", "tp", "node", "peri", "i"], "elements": [{"label": "e", "title": "eccentricity", "value": ".3691382323149274", "units": null, "name": "e", "sigma": 7.26463738962845e-07}, {"title": "perihelion distance", "value": ".8248201141609329", "units": "au", "name": "q", "sigma": 9.51013817597025e-07, "label": "q"}, {"sigma": 4.0566046241216e-05, "name": "tp", "units": "TDB", "value": "2458034.270690429053", "title": "time of perihelion passage", "label": "tp"}, {"label": "node", "units": "deg", "title": "longitude of the ascending node", "value": "77.87909435902969", "name": "om", "sigma": 0.000487320862108399}, {"value": "316.0886224602068", "title": "argument of perihelion", "units": "deg", "sigma": 0.000487235295058031, "name": "w", "label": "peri"}, {"label": "i", "units": "deg", "title": "inclination", "value": "1.858176670366839", "sigma": 1.58077926653349e-05, "name": "i"}], "data": [["5.277495640278768E-13", "-6.908759984724229E-13", "2.541496682854859E-11", "3.411980027301359E-11", "6.115637352384903E-11", "3.328926155772785E-12"], ["-6.908759984724229E-13", "9.04427281260467E-13", "-3.329774990243553E-11", "-4.46196017304973E-11", "-8.013186535139336E-11", "-4.359147852652215E-12"], ["2.541496682854859E-11", "-3.329774990243553E-11", "1.645604107644473E-9", "3.840989720655451E-9", "1.148154108575987E-9", "2.66583628415981E-10"], ["3.411980027301359E-11", "-4.46196017304973E-11", "3.840989720655451E-9", "2.374816226460732E-7", "-2.286477539008092E-7", "7.430248302549529E-9"], ["6.115637352384903E-11", "-8.013186535139336E-11", "1.148154108575987E-9", "-2.286477539008092E-7", "2.373982327502866E-7", "-6.710280127599802E-9"], ["3.328926155772785E-12", "-4.359147852652215E-12", "2.66583628415981E-10", "7.430248302549529E-9", "-6.710280127599802E-9", "2.498863089502165E-10"]], "epoch": "2458135.5"}, "elements": [{"label": "e", "value": ".3686900776664431", "title": "eccentricity", "units": null, "name": "e", "sigma": "7.2692E-7"}, {"label": "a", "units": "au", "title": "semi-major axis", "value": "1.306404114690068", "name": "a", "sigma": "2.6858E-9"}, {"name": "q", "sigma": "9.4882E-7", "units": "au", "title": "perihelion distance", "value": ".8247458801812261", "label": "q"}, {"label": "i", "name": "i", "sigma": "1.5796E-5", "units": "deg", "title": "inclination; angle with respect to x-y ecliptic plane", "value": "1.855401419595757"}, {"name": "om", "sigma": ".00048819", "value": "77.74306585353524", "title": "longitude of the ascending node", "units": "deg", "label": "node"}, {"label": "peri", "units": "deg", "title": "argument of perihelion", "value": "316.3492837249346", "sigma": ".00048798", "name": "w"}, {"label": "M", "units": "deg", "title": "mean anomaly", "value": "288.7787253718465", "sigma": "2.6996E-5", "name": "ma"}, {"sigma": "4.1072E-5", "name": "tp", "units": "TDB", "value": "2461308.400132343322", "title": "time of perihelion passage", "label": "tp"}, {"label": "period", "units": "d", "title": "sidereal orbital period", "value": "545.399501011472", "name": "per", "sigma": "1.6819E-6"}, {"units": "deg/d", "title": "mean motion", "value": ".6600666104981048", "name": "n", "sigma": "2.0355E-9", "label": "n"}, {"value": "1.78806234919891", "title": "aphelion distance", "units": "au", "name": "ad", "sigma": "3.676E-9", "label": "Q"}], "epoch": "2461200.5"}